QIANFAN-60              
1 62790U 25016F   25274.04851698  .00000079  00000+0  10311-3 0  9993
2 62790  88.9733 110.6064 0013715 186.6144 173.4828 13.51176660 37413
QIANFAN-61              
1 62791U 25016G   25294.59732113  .00000079  00000+0  10393-3 0  9996
2 62791  88.9786 108.5998 0016031 129.5200 230.7372 13.50975328 40206
QIANFAN-62              
1 62792U 25016H   25294.60159294  .00000075  00000+0  97417-4 0  9991
2 62792  88.9732 108.4959 0017395 130.1884 230.0793 13.50969260 40190
QIANFAN-63              
1 62793U 25016J   25294.62616781  .00000065  00000+0  81593-4 0  9990
2 62793  88.9739 108.4414 0017359 135.1017 225.1542 13.50972232 40232
QIANFAN-64              
1 62794U 25016K   25294.59323273  .00000074  00000+0  94948-4 0  9996
2 62794  88.9725 108.4259 0015439 128.1677 232.0868 13.50973876 40228
QIANFAN-65              
1 62795U 25016L   25294.58914587  .00000078  00000+0  10220-3 0  9994
2 62795  88.9722 108.4542 0015227 129.7368 230.5128 13.50972847 40207
QIANFAN-66              
1 62796U 25016M   25284.76742828  .00000126  00000+0  17597-3 0  9999
2 62796  88.9747 109.4302 0015725 152.1511 208.0485 13.50966984 38920
QIANFAN-67              
1 62797U 25016N   25294.62206006  .00000074  00000+0  95184-4 0  9990
2 62797  88.9732 108.4414 0016276 132.2099 228.0437 13.50969671 40221
QIANFAN-68              
1 62798U 25016P   25294.61384652  .00000064  00000+0  80322-4 0  9991
2 62798  88.9736 108.4855 0016357 130.6165 229.6412 13.50972008 40207
QIANFAN-69              
1 62799U 25016Q   25294.63035153  .00000074  00000+0  95648-4 0  9991
2 62799  88.9717 108.3645 0017090 131.7368 228.5248 13.50969457 40248
QIANFAN-70              
1 62800U 25016R   25294.57259603  .00000077  00000+0  99989-4 0  9990
2 62800  88.9735 108.4979 0016843 122.9093 237.3681 13.50971982 40193
QIANFAN-71              
1 62801U 25016S   25294.56857300  .00000058  00000+0  71421-4 0  9998
2 62801  88.9731 108.4810 0016927 135.1440 225.1083 13.50973152 40191
QIANFAN-72              
1 62802U 25016T   25274.29087208  .00000084  00000+0  11481-3 0  9997
2 62802  88.9730 110.6012 0018440 200.3911 159.6505 13.49486897 37447
QIANFAN-73              
1 63159U 25046A   25294.61187993  .00000146  00000+0  20754-3 0  9998
2 63159  88.9779 325.4216 0012908 274.8478  85.1199 13.50971357 40375
QIANFAN-74              
1 63160U 25046B   25294.59541105  .00000171  00000+0  24610-3 0  9999
2 63160  88.9783 325.3116 0002138  97.4638 262.6756 13.50973272 40437
QIANFAN-75              
1 63161U 25046C   25294.65702757  .00000187  00000+0  27099-3 0  9990
2 63161  88.9782 325.5382 0014029 278.0856  81.8703 13.50981445 40316
QIANFAN-76              
1 63162U 25046D   25294.65302157  .00000086  00000+0  11544-3 0  9997
2 63162  88.9779 325.5195 0011583 278.9526  81.0314 13.50972804 40320
QIANFAN-77              
1 63163U 25046E   25294.65060536  .00000406  00000+0  28592-3 0  9997
2 63163  88.9779 323.9545 0012924 238.4253 121.5663 13.96075382 41187
QIANFAN-78              
1 63164U 25046F   25294.62012657  .00000155  00000+0  22138-3 0  9997
2 63164  88.9783 325.3874 0012979 281.5567  78.4127 13.50973763 40398
QIANFAN-79              
1 63165U 25046G   25294.64881049  .00000157  00000+0  22520-3 0  9996
2 63165  88.9787 325.4899 0012666 279.5236  80.4484 13.50973033 40348
QIANFAN-80              
1 63166U 25046H   25294.66537972  .00000184  00000+0  26634-3 0  9992
2 63166  88.9784 325.1964 0011656 284.7084  75.2775 13.50973927 40508
QIANFAN-81              
1 63167U 25046J   25294.64449103  .00000201  00000+0  29332-3 0  9997
2 63167  88.9784 325.2669 0012645 271.0153  88.9550 13.50988754 40457
QIANFAN-82              
1 63168U 25046K   25294.60366454  .00000188  00000+0  27311-3 0  9990
2 63168  88.9784 325.3148 0010793 280.5813  79.4122 13.50970915 40439
QIANFAN-83              
1 63169U 25046L   25294.61055212  .00000200  00000+0  24432-3 0  9995
2 63169  88.9781 325.1927 0012032 266.4707  93.5074 13.61965492 40500
QIANFAN-84              
1 63170U 25046M   25294.63193464  .00000148  00000+0  21074-3 0  9991
2 63170  88.9785 325.4448 0013749 276.0902  83.8683 13.50987790 40362
QIANFAN-85              
1 63171U 25046N   25294.62834476  .00000193  00000+0  28073-3 0  9992
2 63171  88.9784 325.3171 0011129 279.1218  80.8674 13.50973996 40436
QIANFAN-86              
1 63172U 25046P   25294.63660679  .00000196  00000+0  28458-3 0  9996
2 63172  88.9786 325.1771 0009029 284.5792  75.4357 13.50970935 40513
QIANFAN-87              
1 63173U 25046Q   25294.60777083  .00000171  00000+0  24684-3 0  9992
2 63173  88.9777 325.2937 0009671 278.6225  81.3831 13.50969003 40446
QIANFAN-88              
1 63174U 25046R   25294.62425733  .00000174  00000+0  25111-3 0  9996
2 63174  88.9784 325.2452 0010126 288.1790  71.8258 13.50970077 40470
QIANFAN-89              
1 63175U 25046S   25294.66112118  .00000178  00000+0  25652-3 0  9995
2 63175  88.9785 325.4304 0014422 276.5143  83.4366 13.50972074 40373
QIANFAN-90              
1 63176U 25046T   25294.61578572  .00000168  00000+0  24135-3 0  9995
2 63176  88.9785 325.4075 0011361 274.6191  85.3662 13.50973647 40388
